CZ-4B R/B               
1 27432U 02024C   24152.61744214  .00000129  00000+0  89838-4 0  9990
2 27432  98.9758 194.8575 0051178  58.5977  54.7537 14.14322441137769
MIDORI II (ADEOS-II)    
1 27597U 02056A   24152.43583540  .00000554  00000+0  23952-3 0  9996
2 27597  98.6912  99.1910 0002159  86.4485 273.6943 14.28359302117862
H-2A R/B                
1 27601U 02056E   24152.54472319  .00000551  00000+0  21135-3 0  9993
2 27601  98.2290 130.4401 0070007 291.5837 175.9931 14.32819355121404
CZ-4B R/B               
1 28059U 03049C   24152.46147255  .00000812  00000+0  20229-3 0  9996
2 28059  98.6097 114.3611 0050102  48.1587 312.3870 14.53770454 92514
CZ-2C R/B               
1 28222U 04012C   24152.57076637  .00018566  00000+0  71591-3 0  9999
2 28222  97.8042 164.8198 0036466 107.8288 252.6933 15.25740558104562
SL-16 R/B               
1 28353U 04021B   24152.40287893  .00000200  00000+0  12908-3 0  9997
2 28353  70.9979 150.7017 0006902 291.3709  68.6677 14.14411056 31307
CZ-4B R/B               
1 28415U 04035C   24152.56622558  .00010949  00000+0  56655-3 0  9997
2 28415  97.4246 186.5963 0044518  81.9234 278.7046 15.15527482 81442
CZ-2C R/B               
1 28480U 04046B   24152.46369676  .00000294  00000+0  12643-3 0  9990
2 28480  98.1617  97.8070 0139330 268.8283  89.6934 14.26375147 16212
ARIANE 5 R/B            
1 28499U 04049H   24152.38966050  .00001208  00000+0  14817-3 0  9994
2 28499  98.1821 289.9653 0087046 287.5985  71.5734 14.82529734 49784
CZ-2D R/B               
1 28738U 05024B   24152.54417116  .00015453  00000+0  60609-3 0  9993
2 28738  97.3636 151.3511 0008669 187.4426 172.6685 15.25802179 40135
SUZAKU (ASTRO-EII)      
1 28773U 05025A   24152.60017793  .00048091  00000+0  97887-3 0  9999
2 28773  31.3870 251.9344 0003257 115.7214 244.3777 15.45019494 44427
ALOS (DAICHI)           
1 28931U 06002A   24152.43251131  .00002820  00000+0  52621-3 0  9995
2 28931  98.0355 105.8499 0001637 124.6888 235.4470 14.65746537978529
H-2A R/B                
1 28932U 06002B   24152.24312153  .00007003  00000+0  52579-3 0  9997
2 28932  98.2068 243.0006 0069989 259.8733  99.4589 15.01010803996795
RESURS-DK 1             
1 29228U 06021A   24152.29649318  .00003928  00000+0  26717-3 0  9995
2 29228  69.9343 105.0687 0003163 351.8204   8.2907 15.07176262989775
GENESIS 1               
1 29252U 06029A   24152.59709343  .00024733  00000+0  65374-3 0  9997
2 29252  64.5152 222.0724 0022944 326.7175  33.2514 15.38122839988034
CZ-4B R/B               
1 29507U 06046C   24152.56201795  .00006168  00000+0  40316-3 0  9995
2 29507  97.6443 188.7124 0039382 336.1229  23.8171 15.07529821962212
CZ-2C R/B               
1 31114U 07010B   24152.41316152  .00000212  00000+0  11716-3 0  9998
2 31114  98.3303 289.4607 0059722  18.3882 341.9436 14.19788286887859
COSMO-SKYMED 1          
1 31598U 07023A   24152.52835573  .00000993  00000+0  13131-3 0  9992
2 31598  97.8867 335.9186 0001521  88.7618 271.3769 14.82155086918659
GENESIS 2               
1 31789U 07028A   24152.61876421  .00025952  00000+0  72248-3 0  9992
2 31789  64.4900 267.5438 0023757 225.8961 134.0217 15.36478669934879
COSMOS 2428             
1 31792U 07029A   24152.34718783 -.00000138  00000+0 -48527-4 0  9998
2 31792  70.9415 122.1107 0007480  66.7506 293.4402 14.12718579872661
SL-16 R/B               
1 31793U 07029B   24152.28066288  .00000032  00000+0  41760-4 0  9991
2 31793  70.9747  93.1002 0002624 263.2474 258.7942 14.14626951873897
KORONAS-FOTON           
1 33504U 09003A   24152.60991921  .00010269  00000+0  39620-3 0  9998
2 33504  82.4380 219.5690 0014023 301.3470  58.6394 15.26070580846492
CZ-2C R/B               
1 37731U 11030B   24152.53998519  .00002097  00000+0  29311-3 0  9995
2 37731  97.7628 117.0311 0054670 295.0278 184.8582 14.77656654694399
H-2A R/B                
1 38341U 12025E   24152.60625340  .00003683  00000+0  39413-3 0  9991
2 38341  98.4248  63.1013 0049158 261.6597  97.9043 14.88539248651728
CUSAT 2 & FALCON 9 R/B  
1 39271U 13055G   24152.34962264  .00104046  14178-5  12040-2 0  9996
2 39271  80.9315  99.9602 0307887   4.2114 356.1591 15.21104638562813
SHIJIAN-16 (SJ-16)      
1 39358U 13057A   24152.58171206  .00001619  00000+0  17565-3 0  9991
2 39358  74.9724 327.2181 0018247 238.1373 121.8038 14.88761550575078
CZ-2C R/B               
1 39364U 13059B   24152.11872739  .00326466  42219-4  97067-3 0  9996
2 39364  97.0349 201.9096 0014212 221.7633 138.2559 15.92279347590512
SL-4 R/B                
1 39679U 14021B   24152.46161800  .00008211  00000+0  31156-3 0  9992
2 39679  51.6102 208.1455 0137461 298.8233  59.9000 15.19353822557226
ALOS-2                  
1 39766U 14029A   24152.47249882  .00003136  00000+0  42656-3 0  9993
2 39766  97.9226 249.3541 0001633  97.3553 262.7845 14.79478966541174
SL-27 R/B               
1 40354U 14084B   24152.36702602  .00054625  00000+0  37259-3 0  9993
2 40354  74.7236 246.4894 0017360  48.4656 311.8059 15.74382694531492
YAOGAN-29               
1 41038U 15069A   24152.56515841  .00000896  00000+0  12049-3 0  9997
2 41038  98.0549 166.8795 0000816 344.5508  15.5679 14.81745320460007
ASTRO-H (HITOMI)        
1 41337U 16012A   24152.40333230  .00003100  00000+0  21432-3 0  9998
2 41337  31.0008 195.4400 0010812 328.4142  31.5845 15.03704184454496
HXMT (HUIYAN)           
1 42758U 17034A   24152.61058010  .00010518  00000+0  57640-3 0  9995
2 42758  43.0157   6.5478 0013355  48.5565 311.6427 15.14199533384323
CZ-2C R/B               
1 43521U 18054D   24152.49072897  .00016640  00000+0  56381-3 0  9995
2 43521  35.1463 222.0780 0057052 338.8577  20.9787 15.28124013328317
SAOCOM 1A               
1 43641U 18076A   24152.53691462  .00000865  00000+0  11520-3 0  9990
2 43641  97.8886 339.0044 0001547  88.0795 272.0595 14.82151994305500
H-2A R/B                
1 43682U 18084L   24152.18358352  .00012820  00000+0  68043-3 0  9999
2 43682  98.8508 236.8660 0045231  67.3595 293.2408 15.14617903306929
SAOCOM 1B               
1 46265U 20059A   24152.56813379  .00000892  00000+0  11859-3 0  9990
2 46265  97.8887 338.1276 0001386  90.1258 270.0114 14.82155337202890
CSS (TIANHE)            
1 48274U 21035A   24152.40958455  .00025197  00000+0  27897-3 0  9999
2 48274  41.4715 185.3432 0002763 216.2868 143.7785 15.62400207176473
COSMOS 2550             
1 48865U 21056A   24152.46260920 -.00000058  00000+0  40789-5 0  9994
2 48865  67.1393 198.9006 0008297 269.1268  90.8935 15.33830214164202
2022-019U               
1 51842U 22019U   24152.58403509  .00238935  00000+0  16063-2 0  9999
2 51842  97.5092 258.1291 0023465 162.6006 197.6067 15.74121335126505
CZ-2C R/B               
1 52794U 22058K   24152.54985965  .00016185  00000+0  63367-3 0  9997
2 52794  50.1762 322.4727 0080124  61.5346 299.3653 15.22958229110584
XRISM                   
1 57800U 23137A   24152.33853311  .00005709  00000+0  42984-3 0  9997
2 57800  31.0022 119.8495 0009368  40.2439 319.8889 15.01022092 40074
